[HEARTBEAT_SYNC] -> 1780624801.8002586 | 
u_p = 0.17259029
[SENSOR_NODE: KTUL] -> 2026/06/05 01:53
KTUL 050153Z 16010KT 10SM FEW039 FEW150 FEW250 27/21 A2993 RMK AO2 PK WND 16026/0106 SLP128 T02670206
[SENSOR_NODE: KCRW] -> 2026/06/05 01:54
KCRW 050154Z 00000KT 10SM FEW240 21/14 A3011 RMK AO2 SLP190 T02060144
