[HEARTBEAT_SYNC] -> 1780588801.7719004 | 
u_p = 0.17259029
[SENSOR_NODE: KTUL] -> 2026/06/04 15:53
KTUL 041553Z 18013KT 10SM BKN030 BKN120 BKN250 28/21 A3005 RMK AO2 SLP169 T02780206
[SENSOR_NODE: KCRW] -> 2026/06/04 15:54
KCRW 041554Z 00000KT 10SM FEW065 FEW250 25/08 A3026 RMK AO2 SLP240 T02500083
