[HEARTBEAT_SYNC] -> 1780556402.2765365 | 
u_p = 0.17259029
[SENSOR_NODE: KTUL] -> 2026/06/04 06:53
KTUL 040653Z 16008KT 10SM SCT150 SCT250 23/18 A3007 RMK AO2 SLP176 T02330183 $
[SENSOR_NODE: KCRW] -> 2026/06/04 06:54
KCRW 040654Z 00000KT 10SM CLR 12/12 A3024 RMK AO2 SLP234 T01170117 $
