[HEARTBEAT_SYNC] -> 1780592401.5006123 | 
u_p = 0.17259029
[SENSOR_NODE: KTUL] -> 2026/06/04 16:53
KTUL 041653Z 19012KT 10SM BKN030 BKN120 BKN250 28/21 A3004 RMK AO2 SLP166 T02830206
[SENSOR_NODE: KCRW] -> 2026/06/04 16:54
KCRW 041654Z 00000KT 10SM FEW070 FEW250 27/10 A3024 RMK AO2 SLP235 T02670100
