[HEARTBEAT_SYNC] -> 1780668001.4763634 | 
u_p = 0.17259029
[SENSOR_NODE: KTUL] -> 2026/06/05 13:53
KTUL 051353Z 16011KT 10SM SCT017 BKN030 BKN110 25/21 A2997 RMK AO2 SLP140 T02500211
[SENSOR_NODE: KCRW] -> 2026/06/05 13:54
KCRW 051354Z VRB03KT 10SM CLR 22/15 A3015 RMK AO2 SLP202 T02220150
