[HEARTBEAT_SYNC] -> 1780560001.4635289 | 
u_p = 0.17259029
[SENSOR_NODE: KTUL] -> 2026/06/04 07:53
KTUL 040753Z 12005KT 10SM SCT080 BKN100 22/18 A3006 RMK AO2 SLP170 T02220183 $
[SENSOR_NODE: KCRW] -> 2026/06/04 07:54
KCRW 040754Z 00000KT 10SM FEW000 11/11 A3023 RMK AO2 SLP233 FG FEW000 T01110111 $
