[HEARTBEAT_SYNC] -> 1780599601.986217 | 
u_p = 0.17259029
[SENSOR_NODE: KTUL] -> 2026/06/04 18:53
KTUL 041853Z 17011G19KT 10SM SCT035 SCT045 SCT120 BKN200 29/19 A3001 RMK AO2 SLP154 T02890194
[SENSOR_NODE: KCRW] -> 2026/06/04 18:54
KCRW 041854Z VRB05KT 10SM FEW070 SCT250 28/10 A3020 RMK AO2 SLP220 T02780100
