[HEARTBEAT_SYNC] -> 1780603202.3720372 | 
u_p = 0.17259029
[SENSOR_NODE: KTUL] -> 2026/06/04 19:53
KTUL 041953Z 17013KT 10SM SCT030 BKN045 BKN120 BKN250 30/20 A2998 RMK AO2 SLP142 T03000200
[SENSOR_NODE: KCRW] -> 2026/06/04 19:54
KCRW 041954Z VRB03KT 10SM SCT250 28/10 A3017 RMK AO2 SLP212 T02780100
