[HEARTBEAT_SYNC] -> 1780614001.3784473 | 
u_p = 0.17259029
[SENSOR_NODE: KTUL] -> 2026/06/04 22:53
KTUL 042253Z 17016KT 10SM FEW043 BKN250 30/20 A2993 RMK AO2 SLP125 T03000200
[SENSOR_NODE: KCRW] -> 2026/06/04 22:54
KCRW 042254Z 00000KT 10SM SCT240 28/11 A3012 RMK AO2 SLP195 T02780111
