[HEARTBEAT_SYNC] -> 1780675202.3985925 | 
u_p = 0.17259029
[SENSOR_NODE: KTUL] -> 2026/06/05 15:53
KTUL 051553Z 18009KT 10SM BKN023 BKN030 27/22 A2997 RMK AO2 SLP139 T02670217
[SENSOR_NODE: KCRW] -> 2026/06/05 15:54
KCRW 051554Z VRB06KT 10SM FEW055 FEW120 SCT250 27/14 A3015 RMK AO2 SLP201 T02720139
