[HEARTBEAT_SYNC] -> 1780610401.959314 | 
u_p = 0.17259029
[SENSOR_NODE: KTUL] -> 2026/06/04 21:53
KTUL 042153Z 18014KT 10SM SCT042 BKN250 30/21 A2994 RMK AO2 SLP131 T03000206
[SENSOR_NODE: KCRW] -> 2026/06/04 21:54
KCRW 042154Z 21005KT 10SM FEW240 28/11 A3014 RMK AO2 SLP200 T02830111
