[HEARTBEAT_SYNC] -> 1780552801.931702 | 
u_p = 0.17259029
[SENSOR_NODE: KTUL] -> 2026/06/04 05:53
KTUL 040553Z 15006KT 10SM SCT250 23/18 A3007 RMK AO2 SLP175 T02330183 10278 20228 402940206 58006 $
[SENSOR_NODE: KCRW] -> 2026/06/04 05:54
KCRW 040554Z 00000KT 10SM CLR 13/12 A3025 RMK AO2 SLP238 T01280117 10244 20128 55000 $
