[HEARTBEAT_SYNC] -> 1780660802.0526333 | 
u_p = 0.17259029
[SENSOR_NODE: KTUL] -> 2026/06/05 11:53
KTUL 051153Z 17010KT 10SM SCT015 OVC025 23/21 A2995 RMK AO2 SLP135 T02330206 10239 20228 53006
[SENSOR_NODE: KCRW] -> 2026/06/05 11:54
KCRW 051154Z 00000KT 10SM SCT200 16/14 A3014 RMK AO2 SLP199 VLY FG T01560139 10156 20128 50004
