[HEARTBEAT_SYNC] -> 1780646401.6900377 | 
u_p = 0.17259029
[SENSOR_NODE: KTUL] -> 2026/06/05 07:53
KTUL 050753Z 17011KT 10SM SCT017 BKN040 23/20 A2994 RMK AO2 SLP131 T02280200 $
[SENSOR_NODE: KCRW] -> 2026/06/05 07:54
KCRW 050754Z 00000KT 10SM CLR 14/14 A3013 RMK AO2 SLP195 T01440139
