[HEARTBEAT_SYNC] -> 1780639202.0416968 | 
u_p = 0.17259029
[SENSOR_NODE: KTUL] -> 2026/06/05 05:53
KTUL 050553Z 17016G22KT 10SM FEW004 24/20 A2995 RMK AO2 SLP134 T02390200 10294 20239 403060222 58002
[SENSOR_NODE: KCRW] -> 2026/06/05 05:54
KCRW 050554Z 00000KT 10SM CLR 16/14 A3014 RMK AO2 SLP199 T01560139 10256 20156 51004
