[HEARTBEAT_SYNC] -> 1780642801.5392425 | 
u_p = 0.17259029
[SENSOR_NODE: KTUL] -> 2026/06/05 06:53
KTUL 050653Z 17011KT 10SM FEW018 FEW025 SCT040 23/20 A2994 RMK AO2 SLP132 T02330200 $
[SENSOR_NODE: KCRW] -> 2026/06/05 06:54
KCRW 050654Z 00000KT 10SM CLR 14/14 A3013 RMK AO2 SLP196 VLY FG T01440139
