[HEARTBEAT_SYNC] -> 1780635601.531919 | 
u_p = 0.17259029
[SENSOR_NODE: KTUL] -> 2026/06/05 04:53
KTUL 050453Z 18014G22KT 10SM CLR 24/20 A2996 RMK AO2 SLP136 T02440200
[SENSOR_NODE: KCRW] -> 2026/06/05 04:54
KCRW 050454Z 00000KT 10SM CLR 16/14 A3014 RMK AO2 SLP197 T01610139 402890100
