[HEARTBEAT_SYNC] -> 1780585201.8160317 | 
u_p = 0.17259029
[SENSOR_NODE: KTUL] -> 2026/06/04 14:53
KTUL 041453Z 20013G23KT 10SM SCT027 SCT120 SCT250 26/20 A3006 RMK AO2 SLP172 T02610200 50001
[SENSOR_NODE: KCRW] -> 2026/06/04 14:54
KCRW 041454Z 00000KT 10SM FEW250 23/12 A3027 RMK AO2 SLP243 T02280117 58003
