[HEARTBEAT_SYNC] -> 1780596001.6339545 | 
u_p = 0.17259029
[SENSOR_NODE: KTUL] -> 2026/06/04 17:53
KTUL 041753Z 18016G21KT 10SM BKN033 BKN200 29/21 A3002 RMK AO2 SLP158 T02890206 10294 20222 58013
[SENSOR_NODE: KCRW] -> 2026/06/04 17:54
KCRW 041754Z 14005KT 10SM FEW250 27/09 A3022 RMK AO2 SLP226 T02670094 10272 20122 58016
