[HEARTBEAT_SYNC] -> 1780549301.4365337 | 
u_p = 0.17259029
[SENSOR_NODE: KTUL] -> 2026/06/04 04:53
KTUL 040453Z 13008KT 10SM FEW150 SCT250 23/18 A3009 RMK AO2 SLP181 T02330183 $
[SENSOR_NODE: KCRW] -> 2026/06/04 04:54
KCRW 040454Z 00000KT 10SM CLR 14/12 A3024 RMK AO2 SLP235 T01390117 402670100 $
