[HEARTBEAT_SYNC] -> 1780664401.8653235 | 
u_p = 0.17259029
[SENSOR_NODE: KTUL] -> 2026/06/05 12:53
KTUL 051253Z 18012KT 10SM BKN015 OVC030 24/21 A2996 RMK AO2 SLP138 T02390206
[SENSOR_NODE: KCRW] -> 2026/06/05 12:54
KCRW 051254Z 00000KT 10SM SCT250 18/14 A3015 RMK AO2 SLP202 T01830144
