[HEARTBEAT_SYNC] -> 1780657202.272207 | 
u_p = 0.17259029
[SENSOR_NODE: KTUL] -> 2026/06/05 10:53
KTUL 051053Z 17008KT 10SM SCT015 OVC020 23/20 A2994 RMK AO2 SLP131 T02330200 $
[SENSOR_NODE: KCRW] -> 2026/06/05 10:54
KCRW 051054Z 00000KT 10SM FEW100 SCT200 13/13 A3015 RMK AO2 SLP201 VLY FG T01330133 $
