[HEARTBEAT_SYNC] -> 1780632001.5015066 | 
u_p = 0.17259029
[SENSOR_NODE: KTUL] -> 2026/06/05 03:53
KTUL 050353Z 16014G21KT 10SM CLR 25/20 A2997 RMK AO2 SLP139 T02500200
[SENSOR_NODE: KCRW] -> 2026/06/05 03:54
KCRW 050354Z 00000KT 10SM CLR 17/14 A3013 RMK AO2 SLP196 T01670144
